[{"OBJECT_NAME":"STARLINK-31631","OBJECT_ID":"2024-068E","EPOCH":"2026-03-09T22:26:47.756544","MEAN_MOTION":15.2756964,"ECCENTRICITY":9.029e-5,"INCLINATION":43.004,"RA_OF_ASC_NODE":29.382,"ARG_OF_PERICENTER":243.1247,"MEAN_ANOMALY":116.9513,"EPHEMERIS_TYPE":0,"CLASSIFICATION_TYPE":"U","NORAD_CAT_ID":59459,"ELEMENT_SET_NO":999,"REV_AT_EPOCH":10860,"BSTAR":-1.9196613e-5,"MEAN_MOTION_DOT":-7.9e-6,"MEAN_MOTION_DDOT":0},{"OBJECT_NAME":"NOAA 17 DEB","OBJECT_ID":"2002-032AF","EPOCH":"2026-03-09T00:24:06.552000","MEAN_MOTION":15.25501717,"ECCENTRICITY":0.00030847,"INCLINATION":98.6472,"RA_OF_ASC_NODE":92.5947,"ARG_OF_PERICENTER":165.9893,"MEAN_ANOMALY":194.1428,"EPHEMERIS_TYPE":0,"CLASSIFICATION_TYPE":"U","NORAD_CAT_ID":48614,"ELEMENT_SET_NO":999,"REV_AT_EPOCH":26420,"BSTAR":0.01090047,"MEAN_MOTION_DOT":0.00286783,"MEAN_MOTION_DDOT":0}]
